QIANFAN-81              
1 63167U 25046J   25365.44914963  .00000253  00000+0  37247-3 0  9996
2 63167  88.9779 317.9366 0016737  67.8168 292.4757 13.51009440 50017
QIANFAN-82              
1 63168U 25046K   25365.48357501  .00000267  00000+0  39440-3 0  9992
2 63168  88.9779 317.9770 0014895  74.6541 285.6254 13.50982463 50000
QIANFAN-83              
1 63169U 25046L   25365.50638828  .00000289  00000+0  35859-3 0  9994
2 63169  88.9780 317.7142 0016137  60.9669 299.3102 13.61982182 50154
QIANFAN-84              
1 63170U 25046M   25365.51123274  .00000238  00000+0  34910-3 0  9992
2 63170  88.9779 318.1067 0017860  71.4454 288.8636 13.50992568 49934
QIANFAN-85              
1 63171U 25046N   25365.50812630  .00000260  00000+0  38330-3 0  9998
2 63171  88.9779 317.9788 0015247  73.5292 286.7533 13.50983458 50003
QIANFAN-86              
1 63172U 25046P   25365.44239457  .00000251  00000+0  37045-3 0  9994
2 63172  88.9781 317.8481 0013123  77.3916 282.8701 13.50983010 50077
QIANFAN-87              
1 63173U 25046Q   25365.41375492  .00000264  00000+0  38952-3 0  9994
2 63173  88.9777 317.9620 0013774  73.4781 286.7882 13.50980485 50007
QIANFAN-88              
1 63174U 25046R   25365.50406050  .00000259  00000+0  38242-3 0  9996
2 63174  88.9780 317.9077 0014174  80.0879 280.1871 13.50987189 50043
